{
    "links": {
        "self": "http://www.neowsapp.com/rest/v1/neo/3773917?api_key=iIulBulltgU6a56xZRHN4H3l9WmuAYTsLGpBGhQ2"
    },
    "id": "3773917",
    "neo_reference_id": "3773917",
    "name": "(2017 GR6)",
    "designation": "2017 GR6",
    "nasa_jpl_url": "http://ssd.jpl.nasa.gov/sbdb.cgi?sstr=3773917",
    "absolute_magnitude_h": 26.4,
    "estimated_diameter": {
        "kilometers": {
            "estimated_diameter_min": 0.0139493823,
            "estimated_diameter_max": 0.0311917671
        },
        "meters": {
            "estimated_diameter_min": 13.9493822934,
            "estimated_diameter_max": 31.1917670523
        },
        "miles": {
            "estimated_diameter_min": 0.0086677416,
            "estimated_diameter_max": 0.0193816595
        },
        "feet": {
            "estimated_diameter_min": 45.7656914036,
            "estimated_diameter_max": 102.3351970157
        }
    },
    "is_potentially_hazardous_asteroid": false,
    "close_approach_data": [
        {
            "close_approach_date": "1959-04-18",
            "close_approach_date_full": "1959-Apr-18 08:12",
            "epoch_date_close_approach": -337880880000,
            "relative_velocity": {
                "kilometers_per_second": "6.0158462771",
                "kilometers_per_hour": "21657.0465976307",
                "miles_per_hour": "13456.8465372889"
            },
            "miss_distance": {
                "astronomical": "0.0500956213",
                "lunar": "19.4871966857",
                "kilometers": "7494198.242806631",
                "miles": "4656678.8550122678"
            },
            "orbiting_body": "Earth"
        },
        {
            "close_approach_date": "2017-04-08",
            "close_approach_date_full": "2017-Apr-08 05:37",
            "epoch_date_close_approach": 1491629820000,
            "relative_velocity": {
                "kilometers_per_second": "5.8499731281",
                "kilometers_per_hour": "21059.9032610339",
                "miles_per_hour": "13085.8048901686"
            },
            "miss_distance": {
                "astronomical": "0.0307323677",
                "lunar": "11.9548910353",
                "kilometers": "4597496.747976799",
                "miles": "2856752.0098418662"
            },
            "orbiting_body": "Earth"
        },
        {
            "close_approach_date": "2073-05-23",
            "close_approach_date_full": "2073-May-23 06:18",
            "epoch_date_close_approach": 3262745880000,
            "relative_velocity": {
                "kilometers_per_second": "12.9175902758",
                "kilometers_per_hour": "46503.3249927713",
                "miles_per_hour": "28895.3576878695"
            },
            "miss_distance": {
                "astronomical": "0.309553114",
                "lunar": "120.416161346",
                "kilometers": "46308486.50626718",
                "miles": "28774759.211679884"
            },
            "orbiting_body": "Earth"
        },
        {
            "close_approach_date": "2187-02-24",
            "close_approach_date_full": "2187-Feb-24 15:55",
            "epoch_date_close_approach": 6852614100000,
            "relative_velocity": {
                "kilometers_per_second": "18.6927995096",
                "kilometers_per_hour": "67294.0782346208",
                "miles_per_hour": "41813.923223062"
            },
            "miss_distance": {
                "astronomical": "0.4978128889",
                "lunar": "193.6492137821",
                "kilometers": "74471747.837986643",
                "miles": "46274598.3248879534"
            },
            "orbiting_body": "Earth"
        }
    ],
    "orbital_data": {
        "orbit_id": "3",
        "orbit_determination_date": "2017-04-24 06:23:12",
        "first_observation_date": "2017-04-06",
        "last_observation_date": "2017-04-23",
        "data_arc_in_days": 17,
        "observations_used": 41,
        "orbit_uncertainty": "8",
        "minimum_orbit_intersection": ".0302285",
        "jupiter_tisserand_invariant": "4.440",
        "epoch_osculation": "2457852.5",
        "eccentricity": ".3207891079765914",
        "semi_major_axis": "1.518932287461335",
        "inclination": "7.69511863499174",
        "ascending_node_longitude": "198.2792292033472",
        "orbital_period": "683.7637104598411",
        "perihelion_distance": "1.03167535388977",
        "perihelion_argument": ".4542353597065422",
        "aphelion_distance": "2.006189221032901",
        "perihelion_time": "2457851.858495300716",
        "mean_anomaly": ".3377507291033745",
        "mean_motion": ".5264976694330483",
        "equinox": "J2000",
        "orbit_class": {
            "orbit_class_type": "AMO",
            "orbit_class_description": "Near-Earth asteroid orbits similar to that of 1221 Amor",
            "orbit_class_range": "1.017 AU < q (perihelion) < 1.3 AU"
        }
    },
    "is_sentry_object": false
}